NORAD_CAT_ID,OBJECT_NAME,OBJECT_TYPE,EPOCH,MEAN_MOTION,ECCENTRICITY,INCLINATION,RA_OF_ASC_NODE,ARG_OF_PERICENTER,MEAN_ANOMALY,BSTAR,MEAN_MOTION_DOT,MEAN_MOTION_DDOT,TLE_LINE0,TLE_LINE1,TLE_LINE2,SEMIMAJOR_AXIS,PERIOD,APOGEE,PERIGEE,DECAYED
52002.0,STARLINK-3668,PAYLOAD,2022-09-08 06:00:00,15.08824845,0.0001443999999999,53.2201,358.2509,71.167,248.9,0.0031111,0.00049553,0.0,0 STARLINK-3668,1 52002U 22025AY  22251.25001157  .00049553  00000-0  31111-2 0  9998,2 52002  53.2201 358.2509 0001444  71.1670 248.9000 15.08824845 29437,6917.927,95.439,540.7909999999998,538.793,0.0
52002.0,STARLINK-3668,PAYLOAD,2022-09-08 14:00:01,15.08855399,0.0001515,53.22,356.7564,63.2681,268.3937,-0.0007546,-0.00012282,0.0,0 STARLINK-3668,1 52002U 22025AY  22251.58334491 -.00012282  00000-0 -75460-3 0  9991,2 52002  53.2200 356.7564 0001515  63.2681 268.3937 15.08855399  1302,6917.833000000001,95.437,540.746,538.65,0.0
52002.0,STARLINK-3668,PAYLOAD,2022-09-08 22:00:00,15.08869364,0.0001395,53.2198,355.2596,61.01300000000001,282.2593,-0.0031146999999999,-0.00049557,0.0,0 STARLINK-3668,1 52002U 22025AY  22251.91667824 -.00049557  00000-0 -31147-2 0  9995,2 52002  53.2198 355.2596 0001395  61.0130 282.2593 15.08869364  1308,6917.791,95.436,540.621,538.691,0.0
52002.0,STARLINK-3668,PAYLOAD,2022-09-09 14:00:01,15.08868129,0.0001447,53.2198,352.2679,61.6381,304.8441,-0.0029684,-0.00047256,0.0,0 STARLINK-3668,1 52002U 22025AY  22252.58334491 -.00047256  00000-0 -29684-2 0  9997,2 52002  53.2198 352.2679 0001447  61.6381 304.8441 15.08868129 29636,6917.794,95.436,540.66,538.658,0.0
52002.0,STARLINK-3668,PAYLOAD,2022-09-09 22:00:00,15.08866,0.0001385,53.2194,350.7708,61.2122,316.8736,-0.0045236,-0.00071616,0.0,0 STARLINK-3668,1 52002U 22025AY  22252.91667824 -.00071616  00000-0 -45236-2 0  9991,2 52002  53.2194 350.7708 0001385  61.2122 316.8736 15.08866000  1308,6917.801,95.436,540.624,538.7080000000002,0.0
52002.0,STARLINK-3668,PAYLOAD,2022-09-10 04:00:00,15.0880017,0.0001276,53.2194,349.6477,68.7111,228.086,0.0026635,0.0004231,0.0,0 STARLINK-3668,1 52002U 22025AY  22253.16667824  .00042310  00000-0  26635-2 0  9998,2 52002  53.2194 349.6477 0001276  68.7111 228.0860 15.08800170 29721,6918.002,95.44,540.75,538.984,0.0
52002.0,STARLINK-3668,PAYLOAD,2022-09-10 14:00:01,15.088256,0.0001408,53.2192,347.7796,60.0652,341.196,0.00050744,7.794e-05,0.0,0 STARLINK-3668,1 52002U 22025AY  22253.58334491  .00007794  00000-0  50744-3 0  9991,2 52002  53.2192 347.7796 0001408  60.0652 341.1960 15.08825600  1301,6917.924,95.438,540.763,538.815,0.0
52002.0,STARLINK-3668,PAYLOAD,2022-09-10 22:00:00,15.08858385,0.000136,53.219,346.2824,61.6237,351.1985,-0.0040355,-0.00063974,0.0,0 STARLINK-3668,1 52002U 22025AY  22253.91667824 -.00063974  00000-0 -40355-2 0  9997,2 52002  53.2190 346.2824 0001360  61.6237 351.1985 15.08858385 29830,6917.824000000001,95.436,540.63,538.748,0.0
52002.0,STARLINK-3668,PAYLOAD,2022-09-11 04:00:00,15.08806089,0.0001356,53.2188,345.1592,69.3412,262.1987,0.0023901,0.0003792,0.0,0 STARLINK-3668,1 52002U 22025AY  22254.16667824  .00037920  00000-0  23901-2 0  9993,2 52002  53.2188 345.1592 0001356  69.3412 262.1987 15.08806089 29873,6917.984,95.44,540.7869999999998,538.911,0.0
52002.0,STARLINK-3668,PAYLOAD,2022-09-11 14:00:01,15.08825166,0.0001517,53.2188,343.2909,62.1354,13.8758,0.00094022,0.00014701,0.0,0 STARLINK-3668,1 52002U 22025AY  22254.58334491  .00014701  00000-0  94022-3 0  9995,2 52002  53.2188 343.2909 0001517  62.1354  13.8758 15.08825166  1301,6917.926,95.438,540.84,538.741,0.0
52002.0,STARLINK-3668,PAYLOAD,2022-09-11 22:00:00,15.08858236,0.000147,53.2186,341.7936,62.3202,25.2706,-0.0017710999999999,-0.00028378,0.0,0 STARLINK-3668,1 52002U 22025AY  22254.91667824 -.00028378  00000-0 -17711-2 0  9997,2 52002  53.2186 341.7936 0001470  62.3202  25.2706 15.08858236 29993,6917.825,95.436,540.707,538.673,0.0
52002.0,STARLINK-3668,PAYLOAD,2022-09-12 14:00:01,15.08832373,0.000165,53.2186,338.802,61.4791,49.3224,0.00124,0.00019498,0.0,0 STARLINK-3668,1 52002U 22025AY  22255.58334491  .00019498  00000-0  12400-2 0  9993,2 52002  53.2186 338.8020 0001650  61.4791  49.3224 15.08832373 30096,6917.904,95.438,540.91,538.627,0.0
52002.0,STARLINK-3668,PAYLOAD,2022-09-12 22:00:00,15.08866095,0.0001512,53.2185,337.3046,61.6702,60.7298,-0.0031778,-0.00050544,0.0,0 STARLINK-3668,1 52002U 22025AY  22255.91667824 -.00050544  00000-0 -31778-2 0  9997,2 52002  53.2185 337.3046 0001512  61.6702  60.7298 15.08866095  1306,6917.801,95.436,540.712,538.62,0.0
52002.0,STARLINK-3668,PAYLOAD,2022-09-13 14:00:01,15.08815688,0.0001569,53.2185,334.3130000000001,55.262,90.3536,0.0023155999999999,0.00036733,0.0,0 STARLINK-3668,1 52002U 22025AY  22256.58334491  .00036733  00000-0  23156-2 0  9995,2 52002  53.2185 334.3130 0001569  55.2620  90.3536 15.08815688  1303,6917.955,95.439,540.905,538.734,0.0
52002.0,STARLINK-3668,PAYLOAD,2022-09-13 16:00:00,15.08812894,0.000157,53.2182,333.939,53.4431,185.0688,0.0033056999999999,0.00052676,0.0,0 STARLINK-3668,1 52002U 22025AY  22256.66667824  .00052676  00000-0  33057-2 0  9998,2 52002  53.2182 333.9390 0001570  53.4431 185.0688 15.08812894 30257,6917.9630000000025,95.439,540.914,538.742,0.0
52002.0,STARLINK-3668,PAYLOAD,2022-09-13 22:00:00,15.08851411,0.0001496,53.2187,332.8152,58.4775,98.7059,-0.0037902,-0.00060124,0.0,0 STARLINK-3668,1 52002U 22025AY  22256.91667824 -.00060124  00000-0 -37902-2 0  9998,2 52002  53.2187 332.8152 0001496  58.4775  98.7059 15.08851411 30293,6917.846,95.437,540.745,538.6759999999998,0.0
52002.0,STARLINK-3668,PAYLOAD,2022-09-14 06:00:00,15.08845603,0.0001475,53.2182,331.3171,63.7697,105.0092,-0.0032492,-0.00051636,0.0,0 STARLINK-3668,1 52002U 22025AY  22257.25001157 -.00051636  00000-0 -32492-2 0  9994,2 52002  53.2182 331.3171 0001475  63.7697 105.0092 15.08845603 30343,6917.863,95.437,540.749,538.7080000000002,0.0
52002.0,STARLINK-3668,PAYLOAD,2022-09-14 14:00:01,15.08813303,0.0001686,53.2189,329.8239,56.3866,123.975,0.0025245,0.00040089,0.0,0 STARLINK-3668,1 52002U 22025AY  22257.58334491  .00040089  00000-0  25245-2 0  9996,2 52002  53.2189 329.8239 0001686  56.3866 123.9750 15.08813303  1303,6917.962,95.439,540.993,538.661,0.0
52002.0,STARLINK-3668,PAYLOAD,2022-09-14 22:00:00,15.08854205,0.0001597,53.2189,328.3262,60.0643,131.8756,-0.0014246999999999,-0.00022899,0.0,0 STARLINK-3668,1 52002U 22025AY  22257.91667824 -.00022899  00000-0 -14247-2 0  9993,2 52002  53.2189 328.3262 0001597  60.0643 131.8756 15.08854205 30446,6917.837,95.437,540.807,538.597,0.0
52002.0,STARLINK-3668,PAYLOAD,2022-09-15 14:00:01,15.08817985,0.0001595,53.219,325.3348,52.8569,162.2736,0.003052,0.0004859,0.0,0 STARLINK-3668,1 52002U 22025AY  22258.58334491  .00048590  00000-0  30520-2 0  9994,2 52002  53.2190 325.3348 0001595  52.8569 162.2736 15.08817985  1307,6917.948,95.439,540.9159999999998,538.7090000000002,0.0
52002.0,STARLINK-3668,PAYLOAD,2022-09-15 16:00:00,15.08822435,0.0001573,53.2187,324.9607,51.8181,256.2079,0.0032794,0.00052266,0.0,0 STARLINK-3668,1 52002U 22025AY  22258.66667824  .00052266  00000-0  32794-2 0  9992,2 52002  53.2187 324.9607 0001573  51.8181 256.2079 15.08822435 30550,6917.934,95.439,540.887,538.711,0.0
52002.0,STARLINK-3668,PAYLOAD,2022-09-15 20:59:58,15.08836427,0.0001447,53.2196,324.025,63.1585,296.9556,3.3236e-05,2.41e-06,0.0,0 STARLINK-3668,1 52002U 22025AY  22258.87498019  .00000241  00000-0  33236-4 0  9993,2 52002  53.2196 324.0250 0001447  63.1585 296.9556 15.08836427 29071,6917.891,95.438,540.757,538.755,0.0
52002.0,STARLINK-3668,PAYLOAD,2022-09-16 03:21:30,15.088393300000002,0.0001402,53.2197,322.8348,56.5006,303.612,5.552100000000001e-05,5.96e-06,0.0,0 STARLINK-3668,1 52002U 22025AY  22259.13993796  .00000596  00000-0  55521-4 0  9999,2 52002  53.2197 322.8348 0001402  56.5006 303.6120 15.08839330 30623,6917.882,95.438,540.717,538.778,0.0
52002.0,STARLINK-3668,PAYLOAD,2022-09-16 11:18:26,15.08833107,0.0001486,53.2195,321.3482,58.4111,301.7026,0.00010652,1.407e-05,0.0,0 STARLINK-3668,1 52002U 22025AY  22259.47113999  .00001407  00000-0  10652-3 0  9992,2 52002  53.2195 321.3482 0001486  58.4111 301.7026 15.08833107 29161,6917.901,95.438,540.794,538.738,0.0
52002.0,STARLINK-3668,PAYLOAD,2022-09-16 20:50:45,15.08829592,0.0001423,53.2192,319.5642,58.4653,301.6478,2.2479e-05,7e-07,0.0,0 STARLINK-3668,1 52002U 22025AY  22259.86858661  .00000070  00000-0  22479-4 0  9993,2 52002  53.2192 319.5642 0001423  58.4653 301.6478 15.08829592 30735,6917.9119999999975,95.438,540.762,538.793,0.0
52002.0,STARLINK-3668,PAYLOAD,2022-09-17 11:09:14,15.08823298,0.0001483,53.2198,316.8889,61.3633,298.7508,-9.033e-06,-4.32e-06,0.0,0 STARLINK-3668,1 52002U 22025AY  22260.46475598 -.00000432  00000-0 -90330-5 0  9991,2 52002  53.2198 316.8889 0001483  61.3633 298.7508 15.08823298 30828,6917.931,95.439,540.822,538.771,0.0
52002.0,STARLINK-3668,PAYLOAD,2022-09-17 20:41:33,15.08830708,0.0001515,53.2197,315.1045,59.8061,300.3081,1.9845e-05,2.8e-07,0.0,0 STARLINK-3668,1 52002U 22025AY  22260.86219323  .00000028  00000-0  19845-4 0  9997,2 52002  53.2197 315.1045 0001515  59.8061 300.3081 15.08830708 29374,6917.909000000002,95.438,540.822,538.726,0.0
52002.0,STARLINK-3668,PAYLOAD,2022-09-18 03:03:05,15.08837084,0.0001394,53.22,313.9151,58.42,301.6928,2.5889e-05,1.24e-06,0.0,0 STARLINK-3668,1 52002U 22025AY  22261.12714948  .00000124  00000-0  25889-4 0  9992,2 52002  53.2200 313.9151 0001394  58.4200 301.6928 15.08837084 30929,6917.889,95.438,540.719,538.79,0.0
52002.0,STARLINK-3668,PAYLOAD,2022-09-18 11:00:00,15.08856424,0.0001551,53.2199,312.4285,62.148,297.9669,-0.00016307,-2.884e-05,0.0,0 STARLINK-3668,1 52002U 22025AY  22261.45834417 -.00002884  00000-0 -16307-3 0  9993,2 52002  53.2199 312.4285 0001551  62.1480 297.9669 15.08856424 30978,6917.83,95.437,540.768,538.622,0.0
